{
  "norad_id": 44207,
  "name": "TIANHUI 2-01A",
  "history": [
    {
      "epoch": "2026-03-27T13:14:13.428384Z",
      "apogee_km": 516.6599652830055,
      "perigee_km": 514.9488890207867,
      "latitude_deg": 2.97166845609518e-06,
      "longitude_deg": 68.0285311335088,
      "height_km": 518.8328581579651,
      "semi_major_axis_km": 6893.941427151895,
      "eccentricity": 0.0001241,
      "inclination_deg": 97.4821,
      "raan_deg": 91.5692,
      "arg_perigee_deg": 86.4292,
      "mean_anomaly_deg": 273.7083,
      "mean_motion_rev_day": 15.16705907
    }
  ]
}